{
  "type": "FeatureCollection",
  "features": [
    {
      "type": "Feature",
      "properties": {
        "norad_id": 31934,
        "name": "FENGYUN 1C DEB",
        "group": "fengyun-1c-debris",
        "lat": 75.27482227124294,
        "lon": 0.2870722120135385,
        "alt_km": 559.6716267564761,
        "timestamp": "2025-12-13T08:49:15.971469+00:00",
        "meta_object_name": "FENGYUN 1C DEB",
        "meta_object_id": "1999-025CMK",
        "meta_epoch": "2025-12-04T09:16:56.352576",
        "meta_mean_motion": 15.05606214,
        "meta_eccentricity": 0.0038121,
        "meta_inclination": 98.8816,
        "meta_ra_of_asc_node": 26.4564,
        "meta_arg_of_pericenter": 260.5868,
        "meta_mean_anomaly": 99.1044,
        "meta_ephemeris_type": 0,
        "meta_classification_type": "U",
        "meta_norad_cat_id": 31934,
        "meta_element_set_no": 999,
        "meta_rev_at_epoch": 60717,
        "meta_bstar": 0.0071095,
        "meta_mean_motion_dot": 0.00105581,
        "meta_mean_motion_ddot": 0,
        "tle_line1": "1 31934U 99025CMK 25338.38676334  .00105581  00000+0  71095-2 0  9999",
        "tle_line2": "2 31934  98.8816  26.4564 0038121 260.5868  99.1044 15.05606214607177"
      },
      "geometry": {
        "type": "Point",
        "coordinates": [
          0.2870722120135385,
          75.27482227124294
        ]
      }
    },
    {
      "type": "Feature",
      "properties": {
        "norad_id": 31937,
        "name": "FENGYUN 1C DEB",
        "group": "fengyun-1c-debris",
        "lat": 50.092493435169644,
        "lon": 65.80528382836417,
        "alt_km": 678.1543095845882,
        "timestamp": "2025-12-13T08:49:15.971482+00:00",
        "meta_object_name": "FENGYUN 1C DEB",
        "meta_object_id": "1999-025CMN",
        "meta_epoch": "2025-12-06T23:52:27.149088",
        "meta_mean_motion": 14.78022374,
        "meta_eccentricity": 0.0162921,
        "meta_inclination": 99.2561,
        "meta_ra_of_asc_node": 69.7316,
        "meta_arg_of_pericenter": 315.3928,
        "meta_mean_anomaly": 43.4262,
        "meta_ephemeris_type": 0,
        "meta_classification_type": "U",
        "meta_norad_cat_id": 31937,
        "meta_element_set_no": 999,
        "meta_rev_at_epoch": 65984,
        "meta_bstar": 0.0011794166,
        "meta_mean_motion_dot": 0.00010567,
        "meta_mean_motion_ddot": 0,
        "tle_line1": "1 31937U 99025CMN 25340.99475867  .00010567  00000+0  11794-2 0  9999",
        "tle_line2": "2 31937  99.2561  69.7316 0162921 315.3928  43.4262 14.78022374659842"
      },
      "geometry": {
        "type": "Point",
        "coordinates": [
          65.80528382836417,
          50.092493435169644
        ]
      }
    },
    {
      "type": "Feature",
      "properties": {
        "norad_id": 31938,
        "name": "FENGYUN 1C DEB",
        "group": "fengyun-1c-debris",
        "lat": 39.60885520555776,
        "lon": 11.41027934124524,
        "alt_km": 479.9236937893784,
        "timestamp": "2025-12-13T08:49:15.971494+00:00",
        "meta_object_name": "FENGYUN 1C DEB",
        "meta_object_id": "1999-025CMP",
        "meta_epoch": "2025-12-12T19:48:02.616192",
        "meta_mean_motion": 14.95612413,
        "meta_eccentricity": 0.01527862,
        "meta_inclination": 98.9298,
        "meta_ra_of_asc_node": 18.2688,
        "meta_arg_of_pericenter": 65.931,
        "meta_mean_anomaly": 295.7807,
        "meta_ephemeris_type": 0,
        "meta_classification_type": "U",
        "meta_norad_cat_id": 31938,
        "meta_element_set_no": 999,
        "meta_rev_at_epoch": 99137,
        "meta_bstar": 0.00059869972,
        "meta_mean_motion_dot": 8.336e-05,
        "meta_mean_motion_ddot": 0,
        "tle_line1": "1 31938U 99025CMP 25346.82503028  .00008336  00000+0  59870-3 0  9998",
        "tle_line2": "2 31938  98.9298  18.2688 0152786  65.9310 295.7807 14.95612413991370"
      },
      "geometry": {
        "type": "Point",
        "coordinates": [
          11.41027934124524,
          39.60885520555776
        ]
      }
    },
    {
      "type": "Feature",
      "properties": {
        "norad_id": 31944,
        "name": "FENGYUN 1C DEB",
        "group": "fengyun-1c-debris",
        "lat": 77.25968278793964,
        "lon": 89.07670270636487,
        "alt_km": 822.6862139357672,
        "timestamp": "2025-12-13T08:49:15.971504+00:00",
        "meta_object_name": "FENGYUN 1C DEB",
        "meta_object_id": "1999-025CMV",
        "meta_epoch": "2025-12-12T04:22:40.814976",
        "meta_mean_motion": 14.11787529,
        "meta_eccentricity": 0.0151811,
        "meta_inclination": 99.2035,
        "meta_ra_of_asc_node": 133.6743,
        "meta_arg_of_pericenter": 5.8705,
        "meta_mean_anomaly": 173.5719,
        "meta_ephemeris_type": 0,
        "meta_classification_type": "U",
        "meta_norad_cat_id": 31944,
        "meta_element_set_no": 999,
        "meta_rev_at_epoch": 62902,
        "meta_bstar": 0.0007470391,
        "meta_mean_motion_dot": 1.471e-05,
        "meta_mean_motion_ddot": 0,
        "tle_line1": "1 31944U 99025CMV 25346.18241684  .00001471  00000+0  74704-3 0  9997",
        "tle_line2": "2 31944  99.2035 133.6743 0151811   5.8705 173.5719 14.11787529629027"
      },
      "geometry": {
        "type": "Point",
        "coordinates": [
          89.07670270636487,
          77.25968278793964
        ]
      }
    },
    {
      "type": "Feature",
      "properties": {
        "norad_id": 31945,
        "name": "FENGYUN 1C DEB",
        "group": "fengyun-1c-debris",
        "lat": 80.59933983971627,
        "lon": -8.681530140488883,
        "alt_km": 856.8035114366076,
        "timestamp": "2025-12-13T08:49:15.971514+00:00",
        "meta_object_name": "FENGYUN 1C DEB",
        "meta_object_id": "1999-025CMW",
        "meta_epoch": "2025-12-11T04:00:57.710304",
        "meta_mean_motion": 14.20785268,
        "meta_eccentricity": 0.00609033,
        "meta_inclination": 98.9621,
        "meta_ra_of_asc_node": 61.4835,
        "meta_arg_of_pericenter": 291.7342,
        "meta_mean_anomaly": 67.7359,
        "meta_ephemeris_type": 0,
        "meta_classification_type": "U",
        "meta_norad_cat_id": 31945,
        "meta_element_set_no": 999,
        "meta_rev_at_epoch": 95173,
        "meta_bstar": 0.0021389026,
        "meta_mean_motion_dot": 4.661e-05,
        "meta_mean_motion_ddot": 0,
        "tle_line1": "1 31945U 99025CMW 25345.16733461  .00004661  00000+0  21389-2 0  9998",
        "tle_line2": "2 31945  98.9621  61.4835 0060903 291.7342  67.7359 14.20785268951737"
      },
      "geometry": {
        "type": "Point",
        "coordinates": [
          -8.681530140488883,
          80.59933983971627
        ]
      }
    },
    {
      "type": "Feature",
      "properties": {
        "norad_id": 31946,
        "name": "FENGYUN 1C DEB",
        "group": "fengyun-1c-debris",
        "lat": -48.432705571286995,
        "lon": 57.76739704624381,
        "alt_km": 851.1658965779434,
        "timestamp": "2025-12-13T08:49:15.971524+00:00",
        "meta_object_name": "FENGYUN 1C DEB",
        "meta_object_id": "1999-025CMX",
        "meta_epoch": "2025-12-12T21:11:04.797024",
        "meta_mean_motion": 14.16435479,
        "meta_eccentricity": 0.00822373,
        "meta_inclination": 98.8979,
        "meta_ra_of_asc_node": 47.1081,
        "meta_arg_of_pericenter": 49.4272,
        "meta_mean_anomaly": 311.4022,
        "meta_ephemeris_type": 0,
        "meta_classification_type": "U",
        "meta_norad_cat_id": 31946,
        "meta_element_set_no": 999,
        "meta_rev_at_epoch": 64010,
        "meta_bstar": 0.0019247318,
        "meta_mean_motion_dot": 3.913e-05,
        "meta_mean_motion_ddot": 0,
        "tle_line1": "1 31946U 99025CMX 25346.88269441  .00003913  00000+0  19247-2 0  9990",
        "tle_line2": "2 31946  98.8979  47.1081 0082237  49.4272 311.4022 14.16435479640104"
      },
      "geometry": {
        "type": "Point",
        "coordinates": [
          57.76739704624381,
          -48.432705571286995
        ]
      }
    },
    {
      "type": "Feature",
      "properties": {
        "norad_id": 31948,
        "name": "FENGYUN 1C DEB",
        "group": "fengyun-1c-debris",
        "lat": 1.0617740842108334,
        "lon": 47.66675838199136,
        "alt_km": 784.1717348270022,
        "timestamp": "2025-12-13T08:49:15.971534+00:00",
        "meta_object_name": "FENGYUN 1C DEB",
        "meta_object_id": "1999-025CMZ",
        "meta_epoch": "2025-12-08T09:44:13.179840",
        "meta_mean_motion": 14.28248279,
        "meta_eccentricity": 0.00237817,
        "meta_inclination": 99.3918,
        "meta_ra_of_asc_node": 42.5089,
        "meta_arg_of_pericenter": 35.7447,
        "meta_mean_anomaly": 26.9919,
        "meta_ephemeris_type": 0,
        "meta_classification_type": "U",
        "meta_norad_cat_id": 31948,
        "meta_element_set_no": 999,
        "meta_rev_at_epoch": 94966,
        "meta_bstar": 0.0021945448,
        "meta_mean_motion_dot": 5.441e-05,
        "meta_mean_motion_ddot": 0,
        "tle_line1": "1 31948U 99025CMZ 25342.40570810  .00005441  00000+0  21945-2 0  9997",
        "tle_line2": "2 31948  99.3918  42.5089 0023781  35.7447  26.9919 14.28248279949662"
      },
      "geometry": {
        "type": "Point",
        "coordinates": [
          47.66675838199136,
          1.0617740842108334
        ]
      }
    }
  ]
}